[{"OBJECT_NAME":"GEESAT-1 03","OBJECT_ID":"2022-058C","EPOCH":"2026-03-09T22:14:40.890624","MEAN_MOTION":14.81007855,"ECCENTRICITY":0.00085744,"INCLINATION":49.9869,"RA_OF_ASC_NODE":299.7347,"ARG_OF_PERICENTER":85.2975,"MEAN_ANOMALY":274.8941,"EPHEMERIS_TYPE":0,"CLASSIFICATION_TYPE":"U","NORAD_CAT_ID":52787,"ELEMENT_SET_NO":999,"REV_AT_EPOCH":20522,"BSTAR":0.00036442214,"MEAN_MOTION_DOT":2.633e-5,"MEAN_MOTION_DDOT":0},{"OBJECT_NAME":"KUIPER-00126","OBJECT_ID":"2025-228J","EPOCH":"2026-03-09T04:31:57.445248","MEAN_MOTION":14.79934112,"ECCENTRICITY":9.562e-5,"INCLINATION":51.9024,"RA_OF_ASC_NODE":2.8184,"ARG_OF_PERICENTER":103.8093,"MEAN_ANOMALY":256.2976,"EPHEMERIS_TYPE":0,"CLASSIFICATION_TYPE":"U","NORAD_CAT_ID":65955,"ELEMENT_SET_NO":999,"REV_AT_EPOCH":2315,"BSTAR":0.00032955601,"MEAN_MOTION_DOT":2.292e-5,"MEAN_MOTION_DDOT":0}]
